IRIDIUM 126             
1 42809U 17039G   24228.88247264  .00000810  00000+0  28223-3 0  9990
2 42809  86.3931 273.7417 0002407  92.4050 267.7421 14.34225725373882
IRIDIUM 124             
1 42810U 17039H   24228.41511206  .00000529  00000+0  15115-3 0  9994
2 42810  86.4505 210.6807 0002142  82.8177 277.3268 14.43290998378362
IRIDIUM 128             
1 42811U 17039J   24228.45460204  .00000698  00000+0  24208-3 0  9990
2 42811  86.3979 305.4616 0002249  87.5380 272.6073 14.34224155373846
IRIDIUM 121             
1 42812U 17039K   24228.41312804  .00000285  00000+0  94749-4 0  9999
2 42812  86.3932 273.9610 0002198  90.4572 269.6876 14.34221902373808
IRIDIUM 133             
1 42955U 17061A   24228.27701583  .00000055  00000+0  12562-4 0  9990
2 42955  86.3979 305.6372 0002363  94.7717 265.3749 14.34218824358610
IRIDIUM 100             
1 42956U 17061B   24228.61951153  .00000948  00000+0  33149-3 0  9993
2 42956  86.3976 305.4281 0002235  92.9870 267.1581 14.34222928358684
IRIDIUM 122             
1 42957U 17061C   24228.44825846  .00000473  00000+0  16179-3 0  9991
2 42957  86.3975 305.4980 0002379  91.2134 268.9334 14.34224233358646
IRIDIUM 129             
1 42958U 17061D   24228.47363007  .00000013  00000+0 -25286-5 0  9993
2 42958  86.3979 305.5476 0002598  93.6263 266.5230 14.34223075358668
